{"fetched_at":"2026-03-29T16:36:15Z","count":15609,"tles":[{"name":"LINUSS1","line1":"1 55246U 22144G   26086.50020120  .00000054  00000+0  00000+0 0  9994","line2":"2 55246   5.1815  64.7614 0011668 297.8847 240.8338  0.99051826 10851","category":"Other"}]}