{
  "norad_id": 55246,
  "name": "LINUSS1",
  "history": [
    {
      "epoch": "2026-03-27T12:00:17.383680Z",
      "apogee_km": 36181.70006746237,
      "perigee_km": 36082.49818044351,
      "latitude_deg": 0.13970471705370963,
      "longitude_deg": -121.6172375438682,
      "height_km": 36155.88017076349,
      "semi_major_axis_km": 42510.23612395294,
      "eccentricity": 0.0011668,
      "inclination_deg": 5.1815,
      "raan_deg": 64.7614,
      "arg_perigee_deg": 297.8847,
      "mean_anomaly_deg": 240.8338,
      "mean_motion_rev_day": 0.99051826
    }
  ]
}